IRIDIUM 57 [-]          
1 25273U 98019B   23314.72026827  .00000717  00000+0  24503-3 0  9994
2 25273  86.4005  30.0058 0002102  93.5505 266.5932 14.34978870340946
IRIDIUM 63 [-]          
1 25286U 98021B   23314.75451427  .00000782  00000+0  26542-3 0  9999
2 25286  86.3966 326.9491 0002233  86.4764 273.6688 14.35482837339978
IRIDIUM 69 [-]          
1 25319U 98026A   23314.83693020  .00000877  00000+0  27414-3 0  9991
2 25319  86.3989 341.9369 0003915 121.1663 238.9920 14.39661352338959
IRIDIUM 71 [-]          
1 25320U 98026B   23314.81655909  .00000656  00000+0  20207-3 0  9993
2 25320  86.3975 336.7675 0002108 150.7493 209.3824 14.39987628339469
IRIDIUM 73 [-]          
1 25344U 98032C   23315.03889492  .00001004  00000+0  25352-3 0  9991
2 25344  86.4374 294.4385 0002613 103.3723 256.7773 14.50122347346164
IRIDIUM 82 [-]          
1 25467U 98051A   23315.12973956  .00011842  00000+0  68912-3 0  9997
2 25467  86.3989  28.8641 0142123 301.6653  57.0783 15.03678189335509
IRIDIUM 2 [-]           
1 25527U 98066A   23314.84326351  .00051218  00000+0  10905-2 0  9998
2 25527  85.5167  82.0234 0005000  89.6169 270.5659 15.44732753373725
